{
    "CCSDS_OMM_VERS": "3.0",
    "COMMENT": "GENERATED VIA SPACE-TRACK.ORG API",
    "CREATION_DATE": "2025-05-22T17:14:14",
    "ORIGINATOR": "18 SPCS",
    "OBJECT_NAME": "GALILEO 32 (137)",
    "OBJECT_ID": "2024-167A",
    "CENTER_NAME": "EARTH",
    "REF_FRAME": "TEME",
    "TIME_SYSTEM": "UTC",
    "MEAN_ELEMENT_THEORY": "SGP4",
    "EPOCH": "2025-05-22T14:51:46.357920",
    "MEAN_MOTION": "1.70474179",
    "ECCENTRICITY": "0.00042660",
    "INCLINATION": "55.3113",
    "RA_OF_ASC_NODE": "232.0298",
    "ARG_OF_PERICENTER": "213.1961",
    "MEAN_ANOMALY": "153.6536",
    "EPHEMERIS_TYPE": "0",
    "CLASSIFICATION_TYPE": "U",
    "NORAD_CAT_ID": "61182",
    "ELEMENT_SET_NO": "999",
    "REV_AT_EPOCH": "422",
    "BSTAR": "0.00000000000000",
    "MEAN_MOTION_DOT": "0.00000004",
    "MEAN_MOTION_DDOT": "0.0000000000000",
    "SEMIMAJOR_AXIS": "29600.299",
    "PERIOD": "844.703",
    "APOAPSIS": "23234.792",
    "PERIAPSIS": "23209.537",
    "OBJECT_TYPE": "PAYLOAD",
    "RCS_SIZE": "LARGE",
    "COUNTRY_CODE": "ESA",
    "LAUNCH_DATE": "2024-09-17",
    "SITE": "AFETR",
    "DECAY_DATE": null,
    "FILE": "4736220",
    "GP_ID": "288155539",
    "TLE_LINE0": "0 GALILEO 32 (137)",
    "TLE_LINE1": "1 61182U 24167A   25142.61928655  .00000004  00000-0  00000-0 0  9998",
    "TLE_LINE2": "2 61182  55.3113 232.0298 0004266 213.1961 153.6536  1.70474179  4222"
}